COSMOS 1892             
1 18421U 87088A   19139.02569356  .00000391  00000-0  18206-4 0  9990
2 18421  82.4981 304.7884 0015223   5.2784 354.8606 15.16816138724828
SL-14 R/B               
1 18749U 88001B   19139.16914574  .00000080  00000-0  68110-5 0  9995
2 18749  82.5152   8.0756 0019322 156.5529 353.0508 14.83187902694376
COSMOS 1933             
1 18958U 88020A   19139.50848950  .00000437  00000-0  29868-4 0  9992
2 18958  82.5277 146.9354 0012919  60.5017 299.7496 15.03592213696904
SL-3 R/B                
1 19046U 88032B   19138.84218574  .00001026  00000-0  80399-4 0  9994
2 19046  97.4375 171.5990 0037857 112.3178 248.2067 15.02566771677843
SL-16 R/B               
1 19120U 88039B   19138.84541634 -.00000092  00000-0 -20952-4 0  9993
2 19120  71.0146 284.4432 0022687 199.1936 160.8337 14.19196935605797
COSMOS 1953             
1 19210U 88050A   19139.41012852  .00000247  00000-0  14992-4 0  9992
2 19210  82.5172  73.2175 0014605  34.2609 325.9558 15.05766626683340
SL-8 R/B                
1 19257U 88053B   19139.08588838  .00000064  00000-0  30025-4 0  9993
2 19257  74.0500   7.9323 0019521  85.0779  76.3513 14.37437100619472
COSMOS 1975             
1 19573U 88093A   19138.83283382  .00000881  00000-0  60442-4 0  9999
2 19573  82.5222  27.3150 0015866  72.7717 287.5245 15.04682636665150
SL-14 R/B               
1 19574U 88093B   19138.79737862  .00000075  00000-0  62714-5 0  9992
2 19574  82.5339 210.0035 0020769 330.3181 168.9892 14.83297585653304
SL-16 R/B               
1 19650U 88102B   19139.10899618  .00000107  00000-0  78464-4 0  9996
2 19650  70.9994 341.2302 0015157 203.5270 156.5161 14.15778710575209
INTERCOSMOS 24          
1 20261U 89080A   19138.86195153  .00000046  00000-0  13423-4 0  9993
2 20261  82.6034 276.2369 1202069 280.6825  66.1410 12.56063564353920
SL-14 R/B               
1 20262U 89080C   19139.08177310  .00000075  00000-0  12487-4 0  9995
2 20262  82.5918 327.1720 1237943  98.6061 275.6938 12.48917558349217
DELTA 2 R/B(1)          
1 20303U 89085B   19138.96339360  .00000997  00000-0  34752-4 0  9999
2 20303  35.6256 332.9226 0098464 262.1927  96.7612 15.26207291607586
DELTA 1 R/B             
1 20323U 89089B   19138.62763372  .00000042  00000-0  19823-4 0  9995
2 20323  97.0709 343.6198 0072785  38.3077 322.3258 14.48301009556107
DELTA 2 R/B(1)          
1 20362U 89097B   19138.81992934  .00023031  00000-0  15400-3 0  9995
2 20362  35.6023 274.4696 0028067  43.2908  83.0788 15.73746459609438
ARIANE 40 R/B           
1 20443U 90005H   19139.17452140  .00000005  00000-0  16464-4 0  9994
2 20443  98.6280 195.4063 0011642  81.7120 278.5387 14.38060581535569
DELTA 2 R/B(1)          
1 20453U 90008B   19139.19388629  .00000420  00000-0  25904-4 0  9990
2 20453  35.6269  65.7463 0284171 247.2447 109.8005 14.84853968552406
COSMOS 2058             
1 20465U 90010A   19138.52441744  .00000252  00000-0  19079-4 0  9999
2 20465  82.4874 294.2820 0017060  95.1608 265.1563 14.97870531590166
SL-14 R/B               
1 20466U 90010B   19138.85579415  .00000061  00000-0  47871-5 0  9993
2 20466  82.5042  76.9785 0020097 192.8624 167.2080 14.81355047581223
SL-14 R/B               
1 20511U 90018B   19138.81613847  .00000061  00000-0  49620-5 0  9990
2 20511  82.5251  21.6306 0016925 340.4895  63.2024 14.80011752575696
HST                     
1 20580U 90037B   19138.85300621  .00000547  00000-0  22433-4 0  9995
2 20580  28.4739  55.8476 0002948 149.9532 210.1272 15.09226011396225
SL-16 R/B               
1 20625U 90046B   19139.37775079 -.00000208  00000-0 -83290-4 0  9990
2 20625  70.9980 117.4406 0012263 128.1824 232.0405 14.14645651496993
COSMOS 2084             
1 20663U 90055A   19138.89736166 -.00000036  00000-0  15024-4 0  9990
2 20663  62.7954  48.8230 0080494 163.9036 196.4644 14.91976782564340
SL-6 R/B(2)             
1 20666U 90055D   19139.48717095 -.00000039  00000-0  14342-4 0  9994
2 20666  62.7863 324.1396 0045919 196.0236 163.9408 14.92242482565822
SL-8 R/B                
1 20775U 90078B   19139.11356603  .00001397  00000-0  67933-4 0  9995
2 20775  82.9283 192.3595 0577001 338.5501  19.2356 14.33292690449084
SL-8 R/B                
1 21088U 91006B   19138.86243994  .00000032  00000-0  16274-4 0  9991
2 21088  82.9447 219.3297 0023304 155.6249 341.8572 13.77120847422033
OKEAN-3                 
1 21397U 91039A   19138.71976266  .00000232  00000-0  19838-4 0  9990
2 21397  82.5228 192.8138 0019220  57.1536 303.1531 14.92801304514282
COSMOS 2151             
1 21422U 91042A   19138.86073829  .00000133  00000-0  10521-4 0  9992
2 21422  82.4984 299.5484 0015661 112.4041 247.8840 14.92045312512979
SL-14 R/B               
1 21423U 91042B   19138.82205419  .00000058  00000-0  45977-5 0  9991
2 21423  82.4962  26.6595 0019027 113.4114 246.9102 14.79762597506194
ERS-1                   
1 21574U 91050A   19138.98035968  .00000043  00000-0  28723-4 0  9997
2 21574  98.5478  88.4615 0033608  26.5447 333.7452 14.37695782458277
ARIANE 40 R/B           
1 21610U 91050F   19138.80676505  .00000022  00000-0  20785-4 0  9994
2 21610  98.5103 205.8976 0003459  28.6440  81.8557 14.40871310461004
INTERCOSMOS 25          
1 21819U 91086A   19139.14969537  .00000580  00000-0  11133-3 0  9997
2 21819  82.5860   2.9088 1518359  34.4010 334.6520 12.04966366196690
SL-14 R/B               
1 21820U 91086B   19138.71101000  .00000038  00000-0  76972-5 0  9996
2 21820  82.5657  65.2054 1575215 251.3822  91.0267 11.93448539190348
SL-8 R/B                
1 21876U 92008B   19139.50133264 -.00000006  00000-0 -21869-4 0  9998
2 21876  82.9239 315.9645 0033701 235.2765 176.9861 13.75635623367809
SL-8 R/B                
1 21938U 92020B   19137.52907633  .00000009  00000-0 -64017-5 0  9995
2 21938  82.9320 201.2581 0030072  43.4013  70.8527 13.75277116359416
COSMOS 2219             
1 22219U 92076A   19139.51388764 -.00000363  00000-0 -16693-3 0  9997
2 22219  71.0572 172.7233 0016630  31.1238 329.0866 14.13637083367320
SL-16 R/B               
1 22220U 92076B   19138.88897860  .00000027  00000-0  37546-4 0  9996
2 22220  71.0015  24.2681 0014971 282.7084 150.4921 14.16441033369995
COSMOS 2221             
1 22236U 92080A   19139.05211568  .00000142  00000-0  12754-4 0  9995
2 22236  82.5061 117.2352 0016324 188.5486 171.5456 14.87827802431527
SL-16 R/B               
1 22285U 92093B   19139.49371501  .00000053  00000-0  51963-4 0  9991
2 22285  71.0212 181.0890 0003204 170.5615 189.5568 14.15036136361748
COSMOS 2228             
1 22286U 92094A   19138.85973510  .00000153  00000-0  13882-4 0  9999
2 22286  82.5215  73.1679 0020137 318.6486  41.3206 14.88042847426685
SL-16 R/B               
1 22566U 93016B   19139.14539513 -.00000229  00000-0 -93496-4 0  9994
2 22566  71.0097  35.5463 0009228 159.5383 200.6111 14.14959007350423
COSMOS 2242             
1 22626U 93024A   19138.46340940  .00000181  00000-0  17012-4 0  9993
2 22626  82.5209 101.5064 0017925 320.1555  39.8345 14.87902667410274
SL-16 R/B               
1 22803U 93059B   19138.60793675  .00000194  00000-0  12042-3 0  9992
2 22803  70.9905 213.4564 0015918  32.8977 327.3133 14.16804920327494
ARIANE 40 R/B           
1 22830U 93061H   19138.81277864 -.00000021  00000-0  93955-5 0  9999
2 22830  98.8176 178.0621 0011668  45.6009 314.6127 14.31434704338477
COSMOS 2278             
1 23087U 94023A   19138.88196795 -.00000042  00000-0  29674-5 0  9993
2 23087  71.0522 334.4624 0010546 231.3766 128.6412 14.13779932293531
SL-16 R/B               
1 23088U 94023B   19138.78831577  .00000118  00000-0  86042-4 0  9991
2 23088  70.9999 251.5831 0001919 149.3155 210.8080 14.14671415294625
SL-16 R/B               
1 23343U 94074B   19138.76430944  .00000025  00000-0  10960-4 0  9995
2 23343  98.0550 188.8442 0006614 355.9818 117.8829 14.76777328320222
SL-16 R/B               
1 23405U 94077B   19138.24429202  .00000114  00000-0  83380-4 0  9990
2 23405  70.9819 183.5212 0003843 307.4143  52.6630 14.15208269264554
ERS-2                   
1 23560U 95021A   19139.20286157  .00000984  00000-0  46242-4 0  9990
2 23560  98.5022 235.0716 0004811  84.9305 275.2477 15.22518813281990
ARIANE 40+ R/B          
1 23561U 95021B   19138.53446911  .00000031  00000-0  25694-4 0  9993
2 23561  98.7683 165.5644 0006669 357.7527 120.0503 14.37920925261893
SL-16 R/B               
1 23705U 95058B   19138.88716207 -.00000236  00000-0 -97018-4 0  9997
2 23705  71.0225 358.9022 0014301 304.0846  55.8919 14.15121950216318
SL-16 R/B               
1 24298U 96051B   19139.20077898  .00000054  00000-0  55404-4 0  9991
2 24298  70.8278  23.9957 0019043 224.7900 135.1684 14.12398286170803
ORBVIEW 2 (SEASTAR)     
1 24883U 97037A   19138.92649790  .00000032  00000-0  27361-4 0  9997
2 24883  98.5807 249.9103 0002485 165.5006 194.6250 14.33504267152307
SL-16 R/B               
1 25400U 98043G   19139.45531523 -.00000031  00000-0  51002-5 0  9994
2 25400  98.5709  78.5498 0010834  51.2995 308.9153 14.25440483 84971
SL-16 R/B               
1 25407U 98045B   19139.10747262  .00000215  00000-0  13340-3 0  9998
2 25407  71.0125   8.4449 0009314 228.0791 131.9539 14.15784673 75392
ISS (ZARYA)             
1 25544U 98067A   19139.52968762  .00001283  00000-0  27884-4 0  9995
2 25544  51.6418 143.5663 0001645   8.9784 134.0575 15.52690016170803
SL-8 R/B                
1 25723U 99022C   19138.12840648  .00008949  00000-0  93732-4 0  9994
2 25723  48.4145   5.2481 0007949 201.2548 158.8072 15.65114959115743
CZ-4B R/B               
1 25732U 99025C   19138.17555935 -.00000002  00000-0  21417-4 0  9998
2 25732  98.9782 158.3485 0036289 258.9403 142.7169 14.17663263 35813
OKEAN-O                 
1 25860U 99039A   19138.50792324  .00000033  00000-0  12432-4 0  9997
2 25860  98.2267 145.2318 0001868  81.2536 278.8884 14.76605306 67173
